OBJECT_NAME,OBJECT_ID,EPOCH,MEAN_MOTION,ECCENTRICITY,INCLINATION,RA_OF_ASC_NODE,ARG_OF_PERICENTER,MEAN_ANOMALY,EPHEMERIS_TYPE,CLASSIFICATION_TYPE,NORAD_CAT_ID,ELEMENT_SET_NO,REV_AT_EPOCH,BSTAR,MEAN_MOTION_DOT,MEAN_MOTION_DDOT
STARLINK-11300 [DTC],2024-175A,2025-10-09T21:42:49.560192,15.69704568,.0000462,53.1581,79.6109,112.5607,247.5460,0,U,61243,999,5968,.1044E-4,.677E-5,0
STARLINK-11276 [DTC],2024-175B,2025-10-09T20:04:07.151232,15.69612790,.00017955,53.1601,79.8935,98.9336,261.1885,0,U,61244,999,5967,.14964773E-3,.17507E-3,0
STARLINK-11280 [DTC],2024-175C,2025-10-09T18:18:18.472320,15.69659106,.00042681,53.1574,80.1484,109.8181,250.3298,0,U,61245,999,5966,-.83072884E-4,-.10629E-3,0
STARLINK-11308 [DTC],2024-175D,2025-10-09T18:25:19.805376,15.69705479,.00008657,53.1589,80.1738,90.9855,269.1262,0,U,61246,999,5966,.1058553E-5,-.46E-5,0
STARLINK-11305 [DTC],2024-175E,2025-10-09T22:46:15.314304,15.69703669,.00006341,53.1576,79.1631,125.4739,234.6338,0,U,61247,999,5969,.616574E-6,-.513E-5,0
STARLINK-11317 [DTC],2024-175F,2025-10-09T21:07:31.253376,15.69697741,.0001803,53.1561,79.4489,58.0680,302.0513,0,U,61248,999,5968,-.13696E-4,-.2248E-4,0
STARLINK-11293 [DTC],2024-175G,2025-10-09T17:57:04.417056,15.69728066,.00002449,53.1589,80.0424,202.9499,157.1508,0,U,61249,999,5966,-.46290886E-4,-.6195E-4,0
STARLINK-11319 [DTC],2024-175J,2025-10-09T20:46:27.826176,15.69704311,.00007982,53.1583,80.0829,95.8773,264.2336,0,U,61251,999,5967,-.781857E-6,-.683E-5,0
STARLINK-11318 [DTC],2024-175K,2025-10-09T22:11:05.460000,15.69699386,.000164,53.1583,79.7354,86.5910,273.5296,0,U,61252,999,6085,.17211E-5,-.381E-5,0
STARLINK-11311 [DTC],2024-175L,2025-10-09T22:03:57.703968,15.69794656,.0000607,53.1602,79.7017,229.7410,130.3555,0,U,61253,999,6089,-.17756E-3,-.22117E-3,0
STARLINK-11306 [DTC],2024-175M,2025-10-09T21:56:57.398208,15.69698851,.0000498,53.1633,79.6661,116.5882,243.5187,0,U,61254,999,6088,.69001E-5,.248E-5,0
STARLINK-11313 [DTC],2024-175N,2025-10-09T20:18:12.357504,15.69702582,.00005506,53.1573,79.9473,112.4475,247.6601,0,U,61255,999,5967,.3099719E-5,-.212E-5,0
STARLINK-32431,2024-175P,2025-10-10T01:46:52.872384,15.30192387,.00009885,53.1595,173.6375,93.1732,266.9381,0,U,61256,999,5839,.40621031E-4,.844E-5,0
STARLINK-32432,2024-175Q,2025-10-10T01:51:26.604000,15.30187015,.00010986,53.1594,173.6576,105.9925,254.1196,0,U,61257,999,5839,.5556212E-5,-.195E-5,0
STARLINK-32382,2024-175R,2025-10-10T01:56:00.107520,15.30197739,.00011037,53.1592,173.6753,106.7420,253.3702,0,U,61258,999,5839,-.90798007E-4,-.3047E-4,0
STARLINK-32435,2024-175S,2025-10-10T00:32:34.785312,15.30200737,.00011552,53.1610,174.0306,97.6319,262.4813,0,U,61259,999,5838,.11924813E-3,.3174E-4,0
STARLINK-32474,2024-175T,2025-10-09T09:57:13.608576,15.30189614,.0000742,53.1590,176.6311,99.5653,260.5432,0,U,61260,999,5829,-.53573E-4,-.1945E-4,0
STARLINK-32447,2024-175U,2025-10-10T00:08:17.602656,15.30167303,.00011028,53.1615,173.9159,76.8774,283.2349,0,U,61261,999,5838,-.79486882E-4,-.271E-4,0
STARLINK-32446,2024-175V,2025-10-10T02:02:05.004096,15.30177396,.00012018,53.1607,173.7057,102.6409,257.4726,0,U,61262,999,5839,.99541306E-4,.2588E-4,0
STARLINK-32174,2024-183A,2025-10-10T05:36:25.557696,15.39619288,.00011148,53.1566,109.4607,93.2521,266.8611,0,U,61509,999,5678,.24336121E-4,.574E-5,0
STARLINK-32139,2024-183B,2025-10-10T06:46:59.718432,15.30206309,.00014927,53.1630,121.1340,104.7747,255.3419,0,U,61510,999,5662,-.67066379E-4,-.2345E-4,0
STARLINK-32140,2024-183C,2025-10-10T06:22:41.167200,15.30189943,.00002422,53.1620,121.0279,183.7487,176.3512,0,U,61511,999,5662,.16433056E-4,.128E-5,0
STARLINK-32201,2024-183D,2025-10-10T06:02:41.110080,15.39625711,.00008685,53.1608,109.5748,100.8556,259.2546,0,U,61512,999,5678,.3666433E-5,-.252E-5,0
STARLINK-32030,2024-183E,2025-10-09T21:31:47.671392,15.30196026,.0001271,53.1600,122.9927,98.5284,261.5861,0,U,61513,999,5656,.14321E-4,.65E-6,0
STARLINK-31837,2024-183F,2025-10-10T06:37:52.752864,15.30194140,.00014937,53.1614,121.0830,89.5127,270.6045,0,U,61514,999,5662,-.10106765E-4,-.659E-5,0
STARLINK-32136,2024-183G,2025-10-09T20:11:27.249504,15.30186980,.00009045,53.1589,123.3584,96.9926,263.1178,0,U,61515,999,5655,.11569831E-3,.3068E-4,0
STARLINK-32047,2024-183H,2025-10-10T06:33:19.348704,15.30189349,.00015547,53.1614,121.0614,94.0932,266.0247,0,U,61516,999,5662,.14185253E-4,.61E-6,0
STARLINK-31756,2024-183J,2025-10-10T05:58:31.338048,15.30191245,.00010298,53.1607,121.5763,86.7478,273.3640,0,U,61517,999,5661,.44795523E-4,.968E-5,0
STARLINK-32172,2024-183K,2025-10-10T06:28:45.803712,15.30193241,.00011296,53.1612,121.0416,94.8529,265.2601,0,U,61518,999,5662,.5018026E-5,-.21E-5,0
STARLINK-32338,2024-183L,2025-10-10T06:18:08.593344,15.30173714,.00020527,53.1565,120.9971,84.3487,275.7748,0,U,61519,999,5662,-.90381264E-4,-.3033E-4,0
