STARLINK-11300 [DTC]    
1 61243U 24175A   25282.90474028  .00000677  00000+0  10440-4 0  9990
2 61243  53.1581  79.6109 0000462 112.5607 247.5460 15.69704568 59684
STARLINK-11276 [DTC]    
1 61244U 24175B   25282.83619388  .00017507  00000+0  14965-3 0  9998
2 61244  53.1601  79.8935 0001795  98.9336 261.1885 15.69612790 59670
STARLINK-11280 [DTC]    
1 61245U 24175C   25282.76271380 -.00010629  00000+0 -83073-4 0  9994
2 61245  53.1574  80.1484 0004268 109.8181 250.3298 15.69659106 59661
STARLINK-11308 [DTC]    
1 61246U 24175D   25282.76759034 -.00000460  00000+0  10586-5 0  9993
2 61246  53.1589  80.1738 0000865  90.9855 269.1262 15.69705479 59661
STARLINK-11305 [DTC]    
1 61247U 24175E   25282.94878836 -.00000513  00000+0  61657-6 0  9991
2 61247  53.1576  79.1631 0000634 125.4739 234.6338 15.69703669 59690
STARLINK-11317 [DTC]    
1 61248U 24175F   25282.88022284 -.00002248  00000+0 -13696-4 0  9999
2 61248  53.1561  79.4489 0001803  58.0680 302.0513 15.69697741 59681
STARLINK-11293 [DTC]    
1 61249U 24175G   25282.74796779 -.00006195  00000+0 -46291-4 0  9994
2 61249  53.1589  80.0424 0000244 202.9499 157.1508 15.69728066 59661
STARLINK-11319 [DTC]    
1 61251U 24175J   25282.86559984 -.00000683  00000+0 -78186-6 0  9991
2 61251  53.1583  80.0829 0000798  95.8773 264.2336 15.69704311 59672
STARLINK-11318 [DTC]    
1 61252U 24175K   25282.92436875 -.00000381  00000+0  17211-5 0  9997
2 61252  53.1583  79.7354 0001640  86.5910 273.5296 15.69699386 60853
STARLINK-11311 [DTC]    
1 61253U 24175L   25282.91941787 -.00022117  00000+0 -17756-3 0  9994
2 61253  53.1602  79.7017 0000607 229.7410 130.3555 15.69794656 60898
STARLINK-11306 [DTC]    
1 61254U 24175M   25282.91455322  .00000248  00000+0  69001-5 0  9991
2 61254  53.1633  79.6661 0000498 116.5882 243.5187 15.69698851 60888
STARLINK-11313 [DTC]    
1 61255U 24175N   25282.84597636 -.00000212  00000+0  30997-5 0  9993
2 61255  53.1573  79.9473 0000550 112.4475 247.6601 15.69702582 59676
STARLINK-32431          
1 61256U 24175P   25283.07422306  .00000844  00000+0  40621-4 0  9995
2 61256  53.1595 173.6375 0000988  93.1732 266.9381 15.30192387 58391
STARLINK-32432          
1 61257U 24175Q   25283.07739125 -.00000195  00000+0  55562-5 0  9997
2 61257  53.1594 173.6576 0001098 105.9925 254.1196 15.30187015 58398
STARLINK-32382          
1 61258U 24175R   25283.08055680 -.00003047  00000+0 -90798-4 0  9995
2 61258  53.1592 173.6753 0001103 106.7420 253.3702 15.30197739 58398
STARLINK-32435          
1 61259U 24175S   25283.02262483  .00003174  00000+0  11925-3 0  9994
2 61259  53.1610 174.0306 0001155  97.6319 262.4813 15.30200737 58387
STARLINK-32474          
1 61260U 24175T   25282.41474084 -.00001945  00000+0 -53573-4 0  9992
2 61260  53.1590 176.6311 0000742  99.5653 260.5432 15.30189614 58299
STARLINK-32447          
1 61261U 24175U   25283.00575929 -.00002710  00000+0 -79487-4 0  9992
2 61261  53.1615 173.9159 0001102  76.8774 283.2349 15.30167303 58381
STARLINK-32446          
1 61262U 24175V   25283.08478014  .00002588  00000+0  99541-4 0  9992
2 61262  53.1607 173.7057 0001201 102.6409 257.4726 15.30177396 58397
STARLINK-32174          
1 61509U 24183A   25283.23362914  .00000574  00000+0  24336-4 0  9996
2 61509  53.1566 109.4607 0001114  93.2521 266.8611 15.39619288 56783
STARLINK-32139          
1 61510U 24183B   25283.28263563 -.00002345  00000+0 -67066-4 0  9990
2 61510  53.1630 121.1340 0001492 104.7747 255.3419 15.30206309 56628
STARLINK-32140          
1 61511U 24183C   25283.26575425  .00000128  00000+0  16433-4 0  9999
2 61511  53.1620 121.0279 0000242 183.7487 176.3512 15.30189943 56628
STARLINK-32201          
1 61512U 24183D   25283.25186470 -.00000252  00000+0  36664-5 0  9995
2 61512  53.1608 109.5748 0000868 100.8556 259.2546 15.39625711 56780
STARLINK-32030          
1 61513U 24183E   25282.89707953  .00000065  00000+0  14321-4 0  9996
2 61513  53.1600 122.9927 0001271  98.5284 261.5861 15.30196026 56566
STARLINK-31837          
1 61514U 24183F   25283.27630501 -.00000659  00000+0 -10107-4 0  9993
2 61514  53.1614 121.0830 0001493  89.5127 270.6045 15.30194140 56624
STARLINK-32136          
1 61515U 24183G   25282.84128761  .00003068  00000+0  11570-3 0  9995
2 61515  53.1589 123.3584 0000904  96.9926 263.1178 15.30186980 56551
STARLINK-32047          
1 61516U 24183H   25283.27314061  .00000061  00000+0  14185-4 0  9990
2 61516  53.1614 121.0614 0001554  94.0932 266.0247 15.30189349 56627
STARLINK-31756          
1 61517U 24183J   25283.24897382  .00000968  00000+0  44796-4 0  9997
2 61517  53.1607 121.5763 0001029  86.7478 273.3640 15.30191245 56615
STARLINK-32172          
1 61518U 24183K   25283.26997458 -.00000210  00000+0  50180-5 0  9991
2 61518  53.1612 121.0416 0001129  94.8529 265.2601 15.30193241 56626
STARLINK-32338          
1 61519U 24183L   25283.26259946 -.00003033  00000+0 -90381-4 0  9998
2 61519  53.1565 120.9971 0002052  84.3487 275.7748 15.30173714 56622
